SAUDISAT 1C (SO-50)     
1 27607U 02058C   26116.83731361  .00001136  00000+0  15127-3 0  9994
2 27607  64.5515 287.8458 0075592 271.8075  87.4374 14.82930098256842
SAUDISAT 2              
1 28371U 04025F   26116.85495256  .00000310  00000+0  80327-4 0  9999
2 28371  98.5511 115.5129 0025966  94.2845 266.1320 14.56651148158270
SAUDISAT 3              
1 31118U 07012B   26116.57653662  .00000361  00000+0  66515-4 0  9996
2 31118  98.1419  66.9566 0015439  36.0085 324.2158 14.71392715 20153
PISAT                   
1 41784U 16059B   26116.71522774  .00001174  00000+0  20753-3 0  9998
2 41784  97.8188 119.3834 0029371  13.0689 347.1271 14.68887831512181
FLYING LAPTOP           
1 42831U 17042G   26116.85314734  .00004782  00000+0  37966-3 0  9997
2 42831  97.4460 274.4458 0018029 300.3418  59.6023 15.00817692478758
SALSAT                  
1 46495U 20068K   26116.45847697  .00009547  00000+0  34104-3 0  9999
2 46495  97.8864 116.4064 0011542 119.6725 240.5665 15.29015639307456
